QIANFAN-25              
1 61558U 24185G   25280.88560023  .00000481  00000+0  28586-3 0  9998
2 61558  88.9749  85.6395 0009905 142.4397 217.7479 14.05814212 60259
QIANFAN-26              
1 61559U 24185H   25280.87805442  .00000336  00000+0  32371-3 0  9991
2 61559  88.9750  86.8574 0005019 191.5100 168.5952 13.77757202 59602
QIANFAN-27              
1 61560U 24185J   25280.84640420  .00000818  00000+0  32899-3 0  9993
2 61560  88.9748  84.6669 0009463 135.0365 225.1597 14.27206625 60763
QIANFAN-28              
1 61561U 24185K   25280.85905903  .00001235  00000+0  49401-3 0  9996
2 61561  88.9764  84.6635 0008553 134.3277 225.8620 14.27826330 60774
QIANFAN-29              
1 61562U 24185L   25280.82241075  .00000231  00000+0  33885-3 0  9991
2 61562  88.9727  88.1208 0008585 236.3869 123.6464 13.50977245 58892
QIANFAN-30              
1 61563U 24185M   25280.82150525  .00000225  00000+0  33499-3 0  9995
2 61563  88.9746  87.6208 0006398 215.3887 144.6840 13.49954818 59177
QIANFAN-31              
1 61564U 24185N   25280.88203150  .00000239  00000+0  31448-3 0  9992
2 61564  88.9732  87.5208 0006097 210.1998 149.8806 13.57927680 59225
QIANFAN-32              
1 61565U 24185P   25280.82644427  .00000226  00000+0  33314-3 0  9993
2 61565  88.9789  87.7346 0007654 248.7893 111.2441 13.50706439 59143
